QIANFAN-65              
1 62795U 25016L   25212.59910731  .00000129  00000+0  18075-3 0  9995
2 62795  88.9833 116.9177 0015170  18.6578 341.5126 13.50959974 29130
QIANFAN-66              
1 62796U 25016M   25212.55369320  .00000132  00000+0  18521-3 0  9994
2 62796  88.9852 116.8661 0016150  14.1554 346.0047 13.50962227 29174
QIANFAN-67              
1 62797U 25016N   25212.55795351  .00000132  00000+0  18596-3 0  9994
2 62797  88.9843 116.9044 0016345  20.5349 339.6455 13.50963765 29146
QIANFAN-68              
1 62798U 25016P   25212.56200086  .00000130  00000+0  18303-3 0  9996
2 62798  88.9846 116.9474 0016915  18.6527 341.5240 13.50961174 29120
QIANFAN-69              
1 62799U 25016Q   25212.56605074  .00000121  00000+0  16812-3 0  9996
2 62799  88.9825 116.8423 0017104  19.5344 340.6459 13.50956848 29167
QIANFAN-70              
1 62800U 25016R   25212.58259412  .00000140  00000+0  19900-3 0  9994
2 62800  88.9846 116.9506 0016375  10.7406 349.4092 13.50960595 29127
QIANFAN-71              
1 62801U 25016S   25212.57856174  .00000135  00000+0  19002-3 0  9999
2 62801  88.9840 116.9387 0017130  22.7702 337.4205 13.50960412 29122
QIANFAN-72              
1 62802U 25016T   25212.57428812  .00000130  00000+0  18284-3 0  9990
2 62802  88.9830 116.9608 0020715  27.7460 332.4792 13.50962061 29114
